[{"OBJECT_NAME":"STARLINK-35542","OBJECT_ID":"2025-235G","EPOCH":"2026-03-09T17:16:25.156704","MEAN_MOTION":15.30221861,"ECCENTRICITY":0.00012408,"INCLINATION":53.157,"RA_OF_ASC_NODE":245.3063,"ARG_OF_PERICENTER":97.4324,"MEAN_ANOMALY":262.6818,"EPHEMERIS_TYPE":0,"CLASSIFICATION_TYPE":"U","NORAD_CAT_ID":66064,"ELEMENT_SET_NO":999,"REV_AT_EPOCH":2292,"BSTAR":0.0015886005,"MEAN_MOTION_DOT":0.00047021,"MEAN_MOTION_DDOT":0},{"OBJECT_NAME":"COSMOS 1862","OBJECT_ID":"1987-055A","EPOCH":"2026-03-09T22:37:02.390592","MEAN_MOTION":15.30492139,"ECCENTRICITY":0.00097484,"INCLINATION":82.4856,"RA_OF_ASC_NODE":47.1862,"ARG_OF_PERICENTER":26.6325,"MEAN_ANOMALY":333.5414,"EPHEMERIS_TYPE":0,"CLASSIFICATION_TYPE":"U","NORAD_CAT_ID":18152,"ELEMENT_SET_NO":999,"REV_AT_EPOCH":8987,"BSTAR":0.00034125048,"MEAN_MOTION_DOT":0.00010107,"MEAN_MOTION_DDOT":0}]
